     2.10           NAVIGATION                              RINEX VERSION / TYPE
fic2rin                                 06/23/2008 02:19:01 PGM / RUN BY / DATE
                                                            END OF HEADER
19 08  6 22  8  0  0.0  .324035063386D-04  .682121026330D-12  .000000000000D+00
     .330000000000D+02  .218125000000D+02  .490484716371D-08 -.733161776799D+00
     .871717929840D-06  .478055072017D-02  .745989382267D-05  .515369112968D+04
     .288000000000D+05 -.577419996262D-07 -.163962840572D+01 -.819563865662D-07
     .956927865372D+00  .232937500000D+03 -.591723203989D+00 -.812105256015D-08
     .542879755978D-09  .100000000000D+01  .148500000000D+04  .000000000000D+00
     .240000000000D+01  .000000000000D+00 -.144354999065D-07  .330000000000D+02
     .216060000000D+05  .400000000000D+01
20 08  6 22  8  0  0.0  .111580826342D-03 -.795807864051D-12  .000000000000D+00
     .710000000000D+02  .492187500000D+02  .466483716634D-08  .110547711682D+01
     .246614217758D-05  .364385358989D-02  .101085752249D-04  .515354870987D+04
     .288000000000D+05 -.782310962677D-07  .367332746369D+00  .130385160446D-07
     .947266448627D+00  .178625000000D+03  .134901718965D+01 -.800783355841D-08
    -.405016870578D-09  .100000000000D+01  .148500000000D+04  .000000000000D+00
     .240000000000D+01  .000000000000D+00 -.651925802231D-08  .710000000000D+02
     .216060000000D+05  .400000000000D+01
21 08  6 22  8  0  0.0  .604679808021D-04 -.125055521494D-11  .000000000000D+00
     .620000000000D+02 -.815625000000D+01  .552308720161D-08  .224597215344D+01
    -.430271029472D-06  .140733459266D-01  .632740557194D-05  .515370564079D+04
     .288000000000D+05 -.370666384697D-06 -.636873171524D+00 -.204890966415D-07
     .936060153817D+00  .249500000000D+03 -.271050565645D+01 -.835749098019D-08
    -.272511351192D-09  .100000000000D+01  .148500000000D+04  .000000000000D+00
     .240000000000D+01  .000000000000D+00 -.116415321827D-07  .620000000000D+02
     .216060000000D+05  .400000000000D+01
22 08  6 22  8  0  0.0  .211514998227D-03  .227373675443D-12  .000000000000D+00
     .750000000000D+02  .473750000000D+02  .482091509618D-08 -.230301991082D+00
     .258535146713D-05  .487652258016D-02  .966154038906D-05  .515366887093D+04
     .288000000000D+05 -.502914190292D-07  .427359193683D+00  .000000000000D+00
     .945369125802D+00  .183093750000D+03 -.181947141471D+01 -.818462663684D-08
    -.418231706744D-09  .100000000000D+01  .148500000000D+04  .000000000000D+00
     .485000000000D+01  .000000000000D+00 -.181607902050D-07  .750000000000D+02
     .216060000000D+05  .400000000000D+01
23 08  6 22  8  0  0.0  .360637903214D-03  .193267624127D-11  .000000000000D+00
     .990000000000D+02  .913437500000D+02  .423839083170D-08 -.141791665205D+01
     .472180545330D-05  .566332763992D-02  .440143048763D-05  .515372171593D+04
     .288000000000D+05 -.949949026108D-07  .143596632841D+01  .130385160446D-07
     .971128414094D+00  .301906250000D+03  .275032227524D+01 -.804426364730D-08
     .177150236161D-09  .100000000000D+01  .148500000000D+04  .000000000000D+00
     .340000000000D+01  .000000000000D+00 -.200234353542D-07  .990000000000D+02
     .216060000000D+05  .400000000000D+01
24 08  6 22  8  0  0.0  .103769358248D-03  .295585778076D-11  .000000000000D+00
     .130000000000D+02 -.646875000000D+01  .516021494367D-08  .879383686500D+00
    -.400468707085D-06  .766797887627D-02  .626593828201D-05  .515366318703D+04
     .288000000000D+05  .108033418655D-06 -.610490927363D+00 -.132247805595D-06
     .952740370626D+00  .255281250000D+03 -.728925773153D+00 -.825212944860D-08
    -.308227124611D-09  .100000000000D+01  .148500000000D+04  .000000000000D+00
     .240000000000D+01  .000000000000D+00 -.139698386192D-08  .130000000000D+02
     .216060000000D+05  .400000000000D+01
26 08  6 22  8  0  0.0  .278708990663D-03  .727595761418D-11  .000000000000D+00
     .300000000000D+02  .101062500000D+03  .364908057028D-08 -.204566299952D+01
     .523589551449D-05  .191769953817D-01  .436790287495D-05  .515361414719D+04
     .288000000000D+05  .199303030968D-06  .147863167734D+01 -.182539224625D-06
     .993192779472D+00  .312468750000D+03  .942367615817D+00 -.757710133097D-08
     .286083345091D-09  .100000000000D+01  .148500000000D+04  .000000000000D+00
     .240000000000D+01  .000000000000D+00 -.605359673500D-08  .300000000000D+02
     .216060000000D+05  .400000000000D+01
27 08  6 22  8  0  0.0  .197401735932D-03  .272848410532D-11  .000000000000D+00
     .420000000000D+02 -.618437500000D+02  .442911306177D-08  .140337307390D+01
    -.364333391190D-05  .210908933077D-01  .244006514549D-05  .515376085281D+04
     .288000000000D+05 -.255182385445D-06  .241985570669D+01 -.491738319397D-06
     .969820034291D+00  .341312500000D+03 -.170391509870D+01 -.841106464032D-08
    -.137148569931D-09  .100000000000D+01  .148500000000D+04  .000000000000D+00
     .240000000000D+01  .000000000000D+00 -.419095158577D-08  .420000000000D+02
     .216060000000D+05  .400000000000D+01
28 08  6 22  8  0  0.0 -.203331001103D-04 -.454747350886D-12  .000000000000D+00
     .290000000000D+02 -.842187500000D+02  .416553065393D-08  .130296968237D+00
    -.441819429398D-05  .138123313664D-01  .105388462543D-04  .515372275925D+04
     .288000000000D+05 -.165775418282D-06 -.272906231293D+01  .244006514549D-06
     .964214113194D+00  .182218750000D+03 -.209632633956D+01 -.798890419850D-08
     .199294015681D-09  .100000000000D+01  .148500000000D+04  .000000000000D+00
     .240000000000D+01  .000000000000D+00 -.102445483208D-07  .290000000000D+02
     .216060000000D+05  .400000000000D+01
29 08  6 22  8  0  0.0 -.424068421125D-04  .000000000000D+00  .000000000000D+00
     .920000000000D+02  .925000000000D+01  .480377152494D-08  .233774321063D+01
     .385567545891D-06  .376102642622D-02  .798888504505D-05  .515364343643D+04
     .288000000000D+05  .726431608200D-07 -.168850609479D+01 -.596046447754D-07
     .959276005422D+00  .229156250000D+03 -.140334734118D+01 -.793425906517D-08
     .495020619596D-09  .100000000000D+01  .148500000000D+04  .000000000000D+00
     .240000000000D+01  .000000000000D+00 -.884756445885D-08  .920000000000D+02
     .216060000000D+05  .400000000000D+01
30 08  6 22  8  0  0.0  .823591835797D-04  .181898940355D-11  .000000000000D+00
     .690000000000D+02 -.877500000000D+02  .454840374499D-08  .602679835737D+00
    -.475160777569D-05  .107024357421D-01  .935979187489D-05  .515372731018D+04
     .288000000000D+05 -.137835741043D-06 -.279630022661D+01 -.670552253723D-07
     .949245716809D+00  .194218750000D+03  .137547689532D+01 -.818141221723D-08
     .978612191697D-10  .100000000000D+01  .148500000000D+04  .000000000000D+00
     .340000000000D+01  .000000000000D+00 -.838190317154D-08  .690000000000D+02
     .216060000000D+05  .400000000000D+01
31 08  6 22  8  0  0.0 -.242493115366D-04 -.125055521494D-11  .000000000000D+00
     .900000000000D+02 -.637187500000D+02  .426553481950D-08  .302127643224D+01
    -.316463410854D-05  .666940514930D-02  .256113708019D-05  .515376771545D+04
     .288000000000D+05  .540167093277D-07  .247644378450D+01 -.558793544769D-08
     .968292986272D+00  .335000000000D+03 -.122207046912D+01 -.804426364730D-08
    -.126433837905D-09  .100000000000D+01  .148500000000D+04  .000000000000D+00
     .240000000000D+01  .000000000000D+00 -.130385160446D-07  .900000000000D+02
     .216060000000D+05  .400000000000D+01
32 08  6 22  8  0  0.0  .300282146782D-03  .386535248253D-11  .000000000000D+00
     .280000000000D+02  .653125000000D+02  .400052378073D-08 -.211788374531D+01
     .336952507496D-05  .137004622957D-01  .996142625809D-05  .515463943672D+04
     .288000000000D+05  .838190317154D-07  .469673715841D+00  .327825546265D-06
     .969140352311D+00  .190062500000D+03 -.129847601204D+01 -.752531345951D-08
    -.382515933324D-09  .100000000000D+01  .148500000000D+04  .000000000000D+00
     .240000000000D+01  .000000000000D+00 -.279396772385D-08  .280000000000D+02
     .216060000000D+05  .400000000000D+01
23 08  6 22  7 59 44.0  .360637437552D-03  .193267624127D-11  .000000000000D+00
     .000000000000D+00  .913437500000D+02  .423839083170D-08 -.142025041015D+01
     .472180545330D-05  .566332845483D-02  .440143048763D-05  .515372172546D+04
     .287840000000D+05 -.949949026108D-07  .143596647178D+01  .130385160446D-07
     .971128433112D+00  .301906250000D+03  .275032231328D+01 -.804426364730D-08
     .177150236161D-09  .100000000000D+01  .148500000000D+04  .000000000000D+00
     .240000000000D+01  .000000000000D+00 -.200234353542D-07  .000000000000D+00
     .263760000000D+05  .400000000000D+01
23 08  6 22  9 59 44.0  .360651407391D-03  .193267624127D-11  .000000000000D+00
     .190000000000D+02  .822500000000D+02  .422803325741D-08 -.369845028753D+00
     .418908894062D-05  .566465407610D-02  .500492751598D-05  .515372544861D+04
     .359840000000D+05  .391155481339D-07  .143590916343D+01 -.104308128357D-06
     .971129063629D+00  .291031250000D+03  .275006498160D+01 -.809533720329D-08
     .346443002170D-10  .100000000000D+01  .148500000000D+04  .000000000000D+00
     .240000000000D+01  .000000000000D+00 -.200234353542D-07  .190000000000D+02
     .288060000000D+05  .400000000000D+01
 2 08  6 22 10  0  0.0  .205583404750D-03 -.102318153949D-11  .000000000000D+00
     .370000000000D+02 -.114375000000D+02  .547058501468D-08 -.156104778596D+00
    -.588595867157D-06  .878000701778D-02  .602006912231D-05  .515373286438D+04
     .360000000000D+05  .242143869400D-07 -.671133149081D+00 -.856816768646D-07
     .943205958577D+00  .254656250000D+03  .258715300965D+01 -.848321050263D-08
    -.183579075377D-09  .100000000000D+01  .148500000000D+04  .000000000000D+00
     .240000000000D+01  .000000000000D+00 -.172294676304D-07  .370000000000D+02
     .288060000000D+05  .400000000000D+01
